YAM-7                   
1 60504U 24149AN  26068.71799904  .00009009  00000+0  30984-3 0  9997
2 60504  97.3828 149.4631 0001973 296.5121  63.5918 15.30304554 86835
STARLINK-33939          
1 63702U 25087F   26068.72597429  .00035915  00000+0  12188-2 0  9991
2 63702  53.1584 219.4976 0001036  85.5171 274.5948 15.30201362 49208
